start=new Date('2022-09-09T00:00:00.000Z').valueOf();
sats=[{"CLASSIFICATION_TYPE":"U","CENTER_NAME":"EARTH","FILE":"3564431","RCS_SIZE":"LARGE","SEMIMAJOR_AXIS":"6925.328","RA_OF_ASC_NODE":"217.8275","INCLINATION":"53.0519","ELEMENT_SET_NO":"999","BSTAR":"0.00045653000000","EPHEMERIS_TYPE":"0","TIME_SYSTEM":"UTC","LAUNCH_DATE":"2020-10-18","ECCENTRICITY":"0.00014920","GP_ID":"212092498","MEAN_MOTION_DOT":"0.00006526","SITE":"AFETR","OBJECT_TYPE":"PAYLOAD","OBJECT_NAME":"STARLINK-1820","MEAN_MOTION":"15.06406753","ARG_OF_PERICENTER":"79.5930","MEAN_ELEMENT_THEORY":"SGP4","REF_FRAME":"TEME","TLE_LINE1":"1 46717U 20073AZ  22251.90451865  .00006526  00000-0  45653-3 0  9992","PERIAPSIS":"546.160","EPOCH":"2022-09-08T21:42:30.411360","MEAN_ANOMALY":"280.5227","OBJECT_ID":"2020-073AZ","NORAD_CAT_ID":"46717","TLE_LINE2":"2 46717  53.0519 217.8275 0001492  79.5930 280.5227 15.06406753104537","PERIOD":"95.592","APOAPSIS":"548.226","DECAY_DATE":null,"MEAN_MOTION_DDOT":"0.0000000000000","COUNTRY_CODE":"US","REV_AT_EPOCH":"10453"},{"MEAN_MOTION_DOT":"0.00004789","GP_ID":"212091488","MEAN_MOTION":"15.06403537","SITE":"AFETR","OBJECT_TYPE":"PAYLOAD","OBJECT_NAME":"STARLINK-1821","ARG_OF_PERICENTER":"83.9563","LAUNCH_DATE":"2020-10-18","TIME_SYSTEM":"UTC","ECCENTRICITY":"0.00016330","SEMIMAJOR_AXIS":"6925.338","EPHEMERIS_TYPE":"0","ELEMENT_SET_NO":"999","BSTAR":"0.00034014000000","RA_OF_ASC_NODE":"233.8166","INCLINATION":"53.0543","CLASSIFICATION_TYPE":"U","CENTER_NAME":"EARTH","RCS_SIZE":"LARGE","FILE":"3564431","MEAN_MOTION_DDOT":"0.0000000000000","DECAY_DATE":null,"REV_AT_EPOCH":"10429","COUNTRY_CODE":"US","MEAN_ANOMALY":"276.1612","OBJECT_ID":"2020-073BA","PERIOD":"95.592","APOAPSIS":"548.334","NORAD_CAT_ID":"46718","TLE_LINE2":"2 46718  53.0543 233.8166 0001633  83.9563 276.1612 15.06403537104299","REF_FRAME":"TEME","PERIAPSIS":"546.072","TLE_LINE1":"1 46718U 20073BA  22251.67918996  .00004789  00000-0  34014-3 0  9998","EPOCH":"2022-09-08T16:18:02.012544","MEAN_ELEMENT_THEORY":"SGP4"},{"ECCENTRICITY":"0.00015790","LAUNCH_DATE":"2020-10-18","TIME_SYSTEM":"UTC","SITE":"AFETR","OBJECT_TYPE":"PAYLOAD","MEAN_MOTION":"15.06404455","ARG_OF_PERICENTER":"68.6036","OBJECT_NAME":"STARLINK-1822","GP_ID":"212090997","MEAN_MOTION_DOT":"0.00001808","RCS_SIZE":"LARGE","FILE":"3564431","CENTER_NAME":"EARTH","CLASSIFICATION_TYPE":"U","BSTAR":"0.00014020000000","EPHEMERIS_TYPE":"0","ELEMENT_SET_NO":"999","INCLINATION":"53.0545","RA_OF_ASC_NODE":"198.0111","SEMIMAJOR_AXIS":"6925.335","APOAPSIS":"548.293","PERIOD":"95.592","TLE_LINE2":"2 46719  53.0545 198.0111 0001579  68.6036 291.5122 15.06404455104813","NORAD_CAT_ID":"46719","MEAN_ANOMALY":"291.5122","OBJECT_ID":"2020-073BB","REV_AT_EPOCH":"10481","COUNTRY_CODE":"US","DECAY_DATE":null,"MEAN_MOTION_DDOT":"0.0000000000000","MEAN_ELEMENT_THEORY":"SGP4","TLE_LINE1":"1 46719U 20073BB  22251.86212261  .00001808  00000-0  14020-3 0  9996","PERIAPSIS":"546.106","EPOCH":"2022-09-08T20:41:27.393504","REF_FRAME":"TEME"},{"MEAN_MOTION_DOT":"0.00002225","GP_ID":"212050290","SITE":"AFETR","MEAN_MOTION":"15.06389358","OBJECT_TYPE":"PAYLOAD","OBJECT_NAME":"STARLINK-1825","ARG_OF_PERICENTER":"65.3949","LAUNCH_DATE":"2020-10-18","TIME_SYSTEM":"UTC","ECCENTRICITY":"0.00016340","SEMIMAJOR_AXIS":"6925.381","EPHEMERIS_TYPE":"0","BSTAR":"0.00016829000000","ELEMENT_SET_NO":"999","INCLINATION":"53.0533","RA_OF_ASC_NODE":"235.2106","CENTER_NAME":"EARTH","CLASSIFICATION_TYPE":"U","RCS_SIZE":"LARGE","FILE":"3563723","DECAY_DATE":null,"MEAN_MOTION_DDOT":"0.0000000000000","REV_AT_EPOCH":"10424","COUNTRY_CODE":"US","MEAN_ANOMALY":"294.7210","OBJECT_ID":"2020-073BE","APOAPSIS":"548.378","PERIOD":"95.593","TLE_LINE2":"2 46722  53.0533 235.2106 0001634  65.3949 294.7210 15.06389358104245","NORAD_CAT_ID":"46722","REF_FRAME":"TEME","TLE_LINE1":"1 46722U 20073BE  22251.37420210  .00002225  00000-0  16829-3 0  9994","EPOCH":"2022-09-08T08:58:51.061440","PERIAPSIS":"546.115","MEAN_ELEMENT_THEORY":"SGP4"},{"MEAN_MOTION_DOT":"0.00002998","GP_ID":"212091998","SITE":"AFETR","OBJECT_TYPE":"PAYLOAD","OBJECT_NAME":"STARLINK-1826","MEAN_MOTION":"15.06402159","ARG_OF_PERICENTER":"65.7673","TIME_SYSTEM":"UTC","LAUNCH_DATE":"2020-10-18","ECCENTRICITY":"0.00015760","SEMIMAJOR_AXIS":"6925.342","RA_OF_ASC_NODE":"193.0066","INCLINATION":"53.0547","EPHEMERIS_TYPE":"0","ELEMENT_SET_NO":"999","BSTAR":"0.00022007000000","CLASSIFICATION_TYPE":"U","CENTER_NAME":"EARTH","FILE":"3564431","RCS_SIZE":"LARGE","MEAN_MOTION_DDOT":"0.0000000000000","DECAY_DATE":null,"COUNTRY_CODE":"US","REV_AT_EPOCH":"10488","MEAN_ANOMALY":"294.3480","OBJECT_ID":"2020-073BF","NORAD_CAT_ID":"46723","TLE_LINE2":"2 46723  53.0547 193.0066 0001576  65.7673 294.3480 15.06402159104880","PERIOD":"95.592","APOAPSIS":"548.298","REF_FRAME":"TEME","EPOCH":"2022-09-08T20:44:47.139936","TLE_LINE1":"1 46723U 20073BF  22251.86443449  .00002998  00000-0  22007-3 0  9990","PERIAPSIS":"546.116","MEAN_ELEMENT_THEORY":"SGP4"},{"LAUNCH_DATE":"2020-10-18","TIME_SYSTEM":"UTC","ECCENTRICITY":"0.00020260","GP_ID":"212064001","MEAN_MOTION_DOT":"-0.00000629","SITE":"AFETR","OBJECT_TYPE":"PAYLOAD","OBJECT_NAME":"STARLINK-1828","ARG_OF_PERICENTER":"96.4635","MEAN_MOTION":"15.06396044","CENTER_NAME":"EARTH","CLASSIFICATION_TYPE":"U","RCS_SIZE":"LARGE","FILE":"3564152","SEMIMAJOR_AXIS":"6925.361","ELEMENT_SET_NO":"999","EPHEMERIS_TYPE":"0","BSTAR":"-0.00002330200000","INCLINATION":"53.0547","RA_OF_ASC_NODE":"235.3693","MEAN_ANOMALY":"263.6585","OBJECT_ID":"2020-073BH","APOAPSIS":"548.629","PERIOD":"95.592","TLE_LINE2":"2 46725  53.0547 235.3693 0002026  96.4635 263.6585 15.06396044104721","NORAD_CAT_ID":"46725","DECAY_DATE":null,"MEAN_MOTION_DDOT":"0.0000000000000","REV_AT_EPOCH":"10472","COUNTRY_CODE":"US","MEAN_ELEMENT_THEORY":"SGP4","REF_FRAME":"TEME","TLE_LINE1":"1 46725U 20073BH  22251.33734947 -.00000629  00000-0 -23302-4 0  9991","PERIAPSIS":"545.823","EPOCH":"2022-09-08T08:05:46.994208"},{"LAUNCH_DATE":"2020-10-18","TIME_SYSTEM":"UTC","ECCENTRICITY":"0.00013450","GP_ID":"212063998","MEAN_MOTION_DOT":"-0.00001196","SITE":"AFETR","OBJECT_TYPE":"PAYLOAD","OBJECT_NAME":"STARLINK-1829","MEAN_MOTION":"15.06397117","ARG_OF_PERICENTER":"170.8458","CENTER_NAME":"EARTH","CLASSIFICATION_TYPE":"U","RCS_SIZE":"LARGE","FILE":"3564152","SEMIMAJOR_AXIS":"6925.357","EPHEMERIS_TYPE":"0","ELEMENT_SET_NO":"999","BSTAR":"-0.00006138900000","INCLINATION":"53.0539","RA_OF_ASC_NODE":"220.5467","MEAN_ANOMALY":"189.2556","OBJECT_ID":"2020-073BJ","APOAPSIS":"548.154","PERIOD":"95.592","TLE_LINE2":"2 46726  53.0539 220.5467 0001345 170.8458 189.2556 15.06397117104926","NORAD_CAT_ID":"46726","MEAN_MOTION_DDOT":"0.0000000000000","DECAY_DATE":null,"REV_AT_EPOCH":"10492","COUNTRY_CODE":"US","MEAN_ELEMENT_THEORY":"SGP4","REF_FRAME":"TEME","TLE_LINE1":"1 46726U 20073BJ  22251.29538929 -.00001196  00000-0 -61389-4 0  9996","EPOCH":"2022-09-08T07:05:21.634656","PERIAPSIS":"546.291"},{"TLE_LINE1":"1 46727U 20073BK  22251.84968157  .00001613  00000-0  12716-3 0  9999","EPOCH":"2022-09-08T20:23:32.487648","PERIAPSIS":"546.350","REF_FRAME":"TEME","MEAN_ELEMENT_THEORY":"SGP4","COUNTRY_CODE":"US","REV_AT_EPOCH":"10488","MEAN_MOTION_DDOT":"0.0000000000000","DECAY_DATE":null,"TLE_LINE2":"2 46727  53.0551 193.0704 0001253  84.5516 275.5616 15.06398625104889","NORAD_CAT_ID":"46727","APOAPSIS":"548.086","PERIOD":"95.592","MEAN_ANOMALY":"275.5616","OBJECT_ID":"2020-073BK","INCLINATION":"53.0551","RA_OF_ASC_NODE":"193.0704","BSTAR":"0.00012716000000","EPHEMERIS_TYPE":"0","ELEMENT_SET_NO":"999","SEMIMAJOR_AXIS":"6925.353","FILE":"3564431","RCS_SIZE":"LARGE","CENTER_NAME":"EARTH","CLASSIFICATION_TYPE":"U","SITE":"AFETR","OBJECT_TYPE":"PAYLOAD","OBJECT_NAME":"STARLINK-1830","MEAN_MOTION":"15.06398625","ARG_OF_PERICENTER":"84.5516","GP_ID":"212091748","MEAN_MOTION_DOT":"0.00001613","ECCENTRICITY":"0.00012530","TIME_SYSTEM":"UTC","LAUNCH_DATE":"2020-10-18"},{"MEAN_ELEMENT_THEORY":"SGP4","TLE_LINE1":"1 46740U 20074B   22251.87641349  .00002269  00000-0  17123-3 0  9994","EPOCH":"2022-09-08T21:02:02.125536","PERIAPSIS":"546.222","REF_FRAME":"TEME","APOAPSIS":"548.244","PERIOD":"95.593","TLE_LINE2":"2 46740  53.0553 302.9535 0001460  85.2884 274.8271 15.06393673104006","NORAD_CAT_ID":"46740","MEAN_ANOMALY":"274.8271","OBJECT_ID":"2020-074B","REV_AT_EPOCH":"10400","COUNTRY_CODE":"US","MEAN_MOTION_DDOT":"0.0000000000000","DECAY_DATE":null,"RCS_SIZE":"LARGE","FILE":"3564431","CENTER_NAME":"EARTH","CLASSIFICATION_TYPE":"U","BSTAR":"0.00017123000000","EPHEMERIS_TYPE":"0","ELEMENT_SET_NO":"999","INCLINATION":"53.0553","RA_OF_ASC_NODE":"302.9535","SEMIMAJOR_AXIS":"6925.368","ECCENTRICITY":"0.00014600","LAUNCH_DATE":"2020-10-24","TIME_SYSTEM":"UTC","SITE":"AFETR","OBJECT_NAME":"STARLINK-1848","OBJECT_TYPE":"PAYLOAD","MEAN_MOTION":"15.06393673","ARG_OF_PERICENTER":"85.2884","MEAN_MOTION_DOT":"0.00002269","GP_ID":"212091999"},{"RCS_SIZE":"LARGE","FILE":"3564431","CENTER_NAME":"EARTH","CLASSIFICATION_TYPE":"U","BSTAR":"0.00028630000000","EPHEMERIS_TYPE":"0","ELEMENT_SET_NO":"999","INCLINATION":"53.0558","RA_OF_ASC_NODE":"298.1725","SEMIMAJOR_AXIS":"6925.361","ECCENTRICITY":"0.00013780","LAUNCH_DATE":"2020-10-24","TIME_SYSTEM":"UTC","SITE":"AFETR","OBJECT_NAME":"STARLINK-1865","OBJECT_TYPE":"PAYLOAD","MEAN_MOTION":"15.06396078","ARG_OF_PERICENTER":"86.1645","MEAN_MOTION_DOT":"0.00003985","GP_ID":"212090989","MEAN_ELEMENT_THEORY":"SGP4","TLE_LINE1":"1 46741U 20074C   22251.82711153  .00003985  00000-0  28630-3 0  9992","PERIAPSIS":"546.271","EPOCH":"2022-09-08T19:51:02.436192","REF_FRAME":"TEME","APOAPSIS":"548.180","PERIOD":"95.592","TLE_LINE2":"2 46741  53.0558 298.1725 0001378  86.1645 273.9501 15.06396078104077","NORAD_CAT_ID":"46741","MEAN_ANOMALY":"273.9501","OBJECT_ID":"2020-074C","REV_AT_EPOCH":"10407","COUNTRY_CODE":"US","MEAN_MOTION_DDOT":"0.0000000000000","DECAY_DATE":null}];
